NORAD_CAT_ID,OBJECT_NAME,OBJECT_TYPE,EPOCH,MEAN_MOTION,ECCENTRICITY,INCLINATION,RA_OF_ASC_NODE,ARG_OF_PERICENTER,MEAN_ANOMALY,BSTAR,MEAN_MOTION_DOT,MEAN_MOTION_DDOT,TLE_LINE0,TLE_LINE1,TLE_LINE2,SEMIMAJOR_AXIS,PERIOD,APOGEE,PERIGEE,DECAYED
51880.0,STARLINK-3566,PAYLOAD,2023-03-28 05:38:50,15.0885525,0.000124,53.2162,165.9967,110.7726,249.3399,0.0011123,0.00017466,0.0,0 STARLINK-3566,1 51880U 22022AE  23087.23531197  .00017466  00000-0  11123-2 0  9995,2 51880  53.2162 165.9967 0001240 110.7726 249.3399 15.08855250 60450,6917.834,95.437,540.557,538.841,0.0
51880.0,STARLINK-3566,PAYLOAD,2023-03-28 12:00:23,15.08846836,0.0001196,53.2166,164.8053,94.0515,266.0614,0.0010762,0.00016884,0.0,0 STARLINK-3566,1 51880U 22022AE  23087.50027336  .00016884  00000-0  10762-2 0  9991,2 51880  53.2166 164.8053 0001196  94.0515 266.0614 15.08846836 60498,6917.859,95.437,540.552,538.897,0.0
51880.0,STARLINK-3566,PAYLOAD,2023-03-28 16:46:32,15.08858589,0.0001311,53.217,163.9131,112.3661,247.747,0.00090518,0.00014155,0.0,0 STARLINK-3566,1 51880U 22022AE  23087.69898953  .00014155  00000-0  90518-3 0  9999,2 51880  53.2170 163.9131 0001311 112.3661 247.7470 15.08858589 60523,6917.824,95.436,540.595,538.782,0.0
51880.0,STARLINK-3566,PAYLOAD,2023-03-29 05:29:38,15.08840546,0.000139,53.2162,161.5374,84.8843,275.2308,0.00090872,0.00014204,0.0,0 STARLINK-3566,1 51880U 22022AE  23088.22891671  .00014204  00000-0  90872-3 0  9997,2 51880  53.2162 161.5374 0001390  84.8843 275.2308 15.08840546 60608,6917.879,95.438,540.705,538.782,0.0
51880.0,STARLINK-3566,PAYLOAD,2023-03-29 10:15:47,15.08850041,0.0001207,53.2164,160.6456,96.1167,263.9962,0.0019096,0.00030242,0.0,0 STARLINK-3566,1 51880U 22022AE  23088.42763677  .00030242  00000-0  19096-2 0  9991,2 51880  53.2164 160.6456 0001207  96.1167 263.9962 15.08850041 60637,6917.85,95.437,540.55,538.88,0.0
51880.0,STARLINK-3566,PAYLOAD,2023-03-29 21:23:29,15.08848535,8.41e-05,53.2168,158.565,157.9722,202.1306,-0.00031582,-5.312e-05,0.0,0 STARLINK-3566,1 51880U 22022AE  23088.89130869 -.00005312  00000-0 -31582-3 0  9990,2 51880  53.2168 158.5650 0000841 157.9722 202.1306 15.08848535 60709,6917.854,95.437,540.301,539.138,0.0
51880.0,STARLINK-3566,PAYLOAD,2023-03-30 05:20:25,15.08839172,0.0001975,53.2162,157.0753,113.7697,246.3503,0.00095156,0.00014888,0.0,0 STARLINK-3566,1 51880U 22022AE  23089.22251758  .00014888  00000-0  95156-3 0  9992,2 51880  53.2162 157.0753 0001975 113.7697 246.3503 15.08839172 60752,6917.883,95.438,541.114,538.382,0.0
51880.0,STARLINK-3566,PAYLOAD,2023-03-30 21:14:17,15.08835069,9.45e-05,53.2167,154.1047,114.5122,245.5968,0.00089013,0.00013905,0.0,0 STARLINK-3566,1 51880U 22022AE  23089.88492144  .00013905  00000-0  89013-3 0  9994,2 51880  53.2167 154.1047 0000945 114.5122 245.5968 15.08835069 60857,6917.895,95.438,540.414,539.107,0.0
51880.0,STARLINK-3566,PAYLOAD,2023-04-01 03:26:37,15.08832572,7.61e-05,53.2155,148.4546,97.777,262.3309,0.00061116,9.45e-05,0.0,0 STARLINK-3566,1 51880U 22022AE  23091.14348622  .00009450  00000-0  61116-3 0  9991,2 51880  53.2155 148.4546 0000761  97.7770 262.3309 15.08832572 61045,6917.903,95.438,540.295,539.242,0.0
51880.0,STARLINK-3566,PAYLOAD,2023-04-01 11:23:33,15.08838814,0.0001078,53.2158,146.9667,87.9684,272.1432,0.0013923,0.00021939,0.0,0 STARLINK-3566,1 51880U 22022AE  23091.47468865  .00021939  00000-0  13923-2 0  9997,2 51880  53.2158 146.9667 0001078  87.9684 272.1432 15.08838814 61098,6917.884,95.438,540.495,539.003,0.0
51880.0,STARLINK-3566,PAYLOAD,2023-04-01 20:55:51,15.08847205,0.0001166,53.2157,145.1827,84.8241,275.2885,0.0012343,0.00019414,0.0,0 STARLINK-3566,1 51880U 22022AE  23091.87212957  .00019414  00000-0  12343-2 0  9990,2 51880  53.2157 145.1827 0001166  84.8241 275.2885 15.08847205 61156,6917.858,95.437,540.53,538.917,0.0
51880.0,STARLINK-3566,PAYLOAD,2023-04-02 12:49:42,15.08864283,0.0001325,53.2159,142.2088,84.2912,275.8231,0.0010629,0.0001668,0.0,0 STARLINK-3566,1 51880U 22022AE  23092.53452441  .00016680  00000-0  10629-2 0  9995,2 51880  53.2159 142.2088 0001325  84.2912 275.8231 15.08864283 61258,6917.806,95.436,540.588,538.755,0.0
51880.0,STARLINK-3566,PAYLOAD,2023-04-02 20:46:38,15.08840967,5.08e-05,53.2167,140.7214,96.9516,263.1534,8.5044e-05,1.066e-05,0.0,0 STARLINK-3566,1 51880U 22022AE  23092.86572390  .00001066  00000-0  85044-4 0  9994,2 51880  53.2167 140.7214 0000508  96.9516 263.1534 15.08840967 61308,6917.877,95.437,540.094,539.391,0.0
51880.0,STARLINK-3566,PAYLOAD,2023-04-03 12:40:30,15.08846812,0.0001284,53.2163,137.7481,90.3029,269.811,0.00048352,7.417e-05,0.0,0 STARLINK-3566,1 51880U 22022AE  23093.52812673  .00007417  00000-0  48352-3 0  9995,2 51880  53.2163 137.7481 0001284  90.3029 269.8110 15.08846812 61404,6917.86,95.437,540.613,538.836,0.0
51880.0,STARLINK-3566,PAYLOAD,2023-04-03 14:15:53,15.08845085,0.0001395,53.2159,137.4502,88.7589,271.3563,0.00045552,6.97e-05,0.0,0 STARLINK-3566,1 51880U 22022AE  23093.59436745  .00006970  00000-0  45552-3 0  9996,2 51880  53.2159 137.4502 0001395  88.7589 271.3563 15.08845085 61417,6917.865,95.437,540.695,538.765,0.0
51880.0,STARLINK-3566,PAYLOAD,2023-04-04 06:09:44,15.08849751,0.0001484,53.2164,134.4763,82.5613,277.5548,0.00058236,8.995e-05,0.0,0 STARLINK-3566,1 51880U 22022AE  23094.25676692  .00008995  00000-0  58236-3 0  9999,2 51880  53.2164 134.4763 0001484  82.5613 277.5548 15.08849751 61514,6917.851,95.437,540.742,538.689,0.0
51880.0,STARLINK-3566,PAYLOAD,2023-04-04 09:20:30,15.08852491,0.0001501,53.2167,133.8819,75.4132,284.7027,0.00055838,8.613e-05,0.0,0 STARLINK-3566,1 51880U 22022AE  23094.38924589  .00008613  00000-0  55838-3 0  9996,2 51880  53.2167 133.8819 0001501  75.4132 284.7027 15.08852491 61538,6917.842,95.437,540.746,538.669,0.0
51880.0,STARLINK-3566,PAYLOAD,2023-04-04 14:06:39,15.08856986,0.0001469,53.2165,132.9885,85.548,274.568,0.0005939,9.181e-05,0.0,0 STARLINK-3566,1 51880U 22022AE  23094.58796282  .00009181  00000-0  59390-3 0  9993,2 51880  53.2165 132.9885 0001469  85.5480 274.5680 15.08856986 61568,6917.828,95.436,540.71,538.677,0.0
51880.0,STARLINK-3566,PAYLOAD,2023-04-05 06:00:31,15.08839743,0.0001383,53.2162,130.0155,82.1781,277.9368,5.5355e-05,5.93e-06,0.0,0 STARLINK-3566,1 51880U 22022AE  23095.25036717  .00000593  00000-0  55355-4 0  9994,2 51880  53.2162 130.0155 0001383  82.1781 277.9368 15.08839743 61669,6917.881,95.438,540.703,538.789,0.0
51880.0,STARLINK-3566,PAYLOAD,2023-04-05 09:11:17,15.08842803,0.0001366,53.2156,129.4219,75.9511,284.1633,0.00017017,2.422e-05,0.0,0 STARLINK-3566,1 51880U 22022AE  23095.38284670  .00002422  00000-0  17017-3 0  9996,2 51880  53.2156 129.4219 0001366  75.9511 284.1633 15.08842803 61685,6917.872,95.437,540.682,538.792,0.0
51880.0,STARLINK-3566,PAYLOAD,2023-04-05 18:43:36,15.08842616,0.0001306,53.2153,127.6375,75.6126,284.5011,0.00029529,4.415e-05,0.0,0 STARLINK-3566,1 51880U 22022AE  23095.78028721  .00004415  00000-0  29529-3 0  9998,2 51880  53.2153 127.6375 0001306  75.6126 284.5011 15.08842616 61741,6917.872,95.437,540.641,538.834,0.0
51880.0,STARLINK-3566,PAYLOAD,2023-04-06 07:26:41,15.0884521,0.0001346,53.215,125.2586,74.8811,285.233,0.00019151,2.762e-05,0.0,0 STARLINK-3566,1 51880U 22022AE  23096.31020634  .00002762  00000-0  19151-3 0  9996,2 51880  53.2150 125.2586 0001346  74.8811 285.2330 15.08845210 61826,6917.864,95.437,540.661,538.798,0.0
51880.0,STARLINK-3566,PAYLOAD,2023-04-06 12:12:51,15.08849345,0.0001342,53.215,124.3666,75.9314,284.1827,0.00029242,4.37e-05,0.0,0 STARLINK-3566,1 51880U 22022AE  23096.50892451  .00004370  00000-0  29242-3 0  9990,2 51880  53.2150 124.3666 0001342  75.9314 284.1827 15.08849345 61856,6917.852,95.437,540.645,538.788,0.0
51880.0,STARLINK-3566,PAYLOAD,2023-04-06 18:34:23,15.08838805,0.0001182,53.216,123.1779,89.8858,270.227,8.0978e-05,1.001e-05,0.0,0 STARLINK-3566,1 51880U 22022AE  23096.77388611  .00001001  00000-0  80978-4 0  9999,2 51880  53.2160 123.1779 0001182  89.8858 270.2270 15.08838805 61899,6917.884,95.438,540.567,538.931,0.0
51880.0,STARLINK-3566,PAYLOAD,2023-04-07 05:42:05,15.08841114,0.0001305,53.2148,121.0952,87.0317,273.0824,9.9624e-05,1.298e-05,0.0,0 STARLINK-3566,1 51880U 22022AE  23097.23756736  .00001298  00000-0  99624-4 0  9994,2 51880  53.2148 121.0952 0001305  87.0317 273.0824 15.08841114 61963,6917.877,95.437,540.645,538.839,0.0
51880.0,STARLINK-3566,PAYLOAD,2023-04-07 08:52:52,15.0884323,0.0001301,53.215,120.5006,88.0159,272.0982,0.00014763,2.063e-05,0.0,0 STARLINK-3566,1 51880U 22022AE  23097.37004668  .00002063  00000-0  14763-3 0  9990,2 51880  53.2150 120.5006 0001301  88.0159 272.0982 15.08843230 61988,6917.871,95.437,540.636,538.836,0.0
51880.0,STARLINK-3566,PAYLOAD,2023-04-08 10:19:02,15.08840227,0.0001473,53.2163,115.7421,96.3127,263.8033,9.479e-05,1.221e-05,0.0,0 STARLINK-3566,1 51880U 22022AE  23098.42988870  .00001221  00000-0  94790-4 0  9997,2 51880  53.2163 115.7421 0001473  96.3127 263.8033 15.08840227 62143,6917.88,95.438,540.764,538.726,0.0
51880.0,STARLINK-3566,PAYLOAD,2023-04-09 08:34:25,15.08868619,0.0001527,53.2158,111.5815,71.2344,288.8814,0.00064115,9.939e-05,0.0,0 STARLINK-3566,1 51880U 22022AE  23099.35723595  .00009939  00000-0  64115-3 0  9992,2 51880  53.2158 111.5815 0001527  71.2344 288.8814 15.08868619 62285,6917.793,95.436,540.714,538.602,0.0
51880.0,STARLINK-3566,PAYLOAD,2023-04-09 18:06:44,15.08833555,0.0001513,53.2161,109.7933,98.696,261.4204,-0.00054217,-8.905e-05,0.0,0 STARLINK-3566,1 51880U 22022AE  23099.75467913 -.00008905  00000-0 -54217-3 0  9991,2 51880  53.2161 109.7933 0001513  98.6960 261.4204 15.08833555 62349,6917.9,95.438,540.812,538.718,0.0
51880.0,STARLINK-3566,PAYLOAD,2023-04-10 11:35:58,15.08840622,0.0001276,53.2161,106.5242,95.3527,264.7611,-1.2234e-05,-4.83e-06,0.0,0 STARLINK-3566,1 51880U 22022AE  23100.48332036 -.00000483  00000-0 -12234-4 0  9998,2 51880  53.2161 106.5242 0001276  95.3527 264.7611 15.08840622 62459,6917.878,95.438,540.626,538.861,0.0
